CCSDS_OMM_VERS = 2.0
CREATION_DATE  = 
ORIGINATOR     = 

OBJECT_NAME    = SL-8 R/B
OBJECT_ID      = 1992-008B
CENTER_NAME    = EARTH
REF_FRAME      = TEME
TIME_SYSTEM    = UTC
MEAN_ELEMENT_THEORY = SGP/SGP4

EPOCH          = 2026-03-12T13:21:11.928384
MEAN_MOTION    = 13.75969802
ECCENTRICITY   = .00356577
INCLINATION    = 82.9221
RA_OF_ASC_NODE = 265.6453
ARG_OF_PERICENTER = 125.5711
MEAN_ANOMALY   = 288.7075

EPHEMERIS_TYPE = 0
CLASSIFICATION_TYPE = U
NORAD_CAT_ID   = 21876
ELEMENT_SET_NO = 999
REV_AT_EPOCH   = 70981
BSTAR          = -.3585495E-5
MEAN_MOTION_DOT = .12E-6
MEAN_MOTION_DDOT = 0

CCSDS_OMM_VERS = 2.0
CREATION_DATE  = 
ORIGINATOR     = 

OBJECT_NAME    = SL-8 R/B
OBJECT_ID      = 1992-020B
CENTER_NAME    = EARTH
REF_FRAME      = TEME
TIME_SYSTEM    = UTC
MEAN_ELEMENT_THEORY = SGP/SGP4

EPOCH          = 2026-03-12T07:28:19.059744
MEAN_MOTION    = 13.75549842
ECCENTRICITY   = .0027624
INCLINATION    = 82.9332
RA_OF_ASC_NODE = 151.8153
ARG_OF_PERICENTER = 291.1629
MEAN_ANOMALY   = 132.4204

EPHEMERIS_TYPE = 0
CLASSIFICATION_TYPE = U
NORAD_CAT_ID   = 21938
ELEMENT_SET_NO = 999
REV_AT_EPOCH   = 70149
BSTAR          = .5312973E-4
MEAN_MOTION_DOT = .66E-6
MEAN_MOTION_DDOT = 0

CCSDS_OMM_VERS = 2.0
CREATION_DATE  = 
ORIGINATOR     = 

OBJECT_NAME    = USA 81
OBJECT_ID      = 1992-023A
CENTER_NAME    = EARTH
REF_FRAME      = TEME
TIME_SYSTEM    = UTC
MEAN_ELEMENT_THEORY = SGP/SGP4

EPOCH          = 2026-03-12T14:13:40.413504
MEAN_MOTION    = 14.32369046
ECCENTRICITY   = .00023902
INCLINATION    = 85.0079
RA_OF_ASC_NODE = 129.7664
ARG_OF_PERICENTER = 75.1126
MEAN_ANOMALY   = 285.0331

EPHEMERIS_TYPE = 0
CLASSIFICATION_TYPE = U
NORAD_CAT_ID   = 21949
ELEMENT_SET_NO = 999
REV_AT_EPOCH   = 9520
BSTAR          = .62467216E-4
MEAN_MOTION_DOT = .189E-5
MEAN_MOTION_DDOT = 0

CCSDS_OMM_VERS = 2.0
CREATION_DATE  = 
ORIGINATOR     = 

OBJECT_NAME    = COSMOS 2219
OBJECT_ID      = 1992-076A
CENTER_NAME    = EARTH
REF_FRAME      = TEME
TIME_SYSTEM    = UTC
MEAN_ELEMENT_THEORY = SGP/SGP4

EPOCH          = 2026-03-12T06:42:53.252928
MEAN_MOTION    = 14.14093345
ECCENTRICITY   = .00188455
INCLINATION    = 71.0639
RA_OF_ASC_NODE = 12.6533
ARG_OF_PERICENTER = 203.5025
MEAN_ANOMALY   = 156.5238

EPHEMERIS_TYPE = 0
CLASSIFICATION_TYPE = U
NORAD_CAT_ID   = 22219
ELEMENT_SET_NO = 999
REV_AT_EPOCH   = 71874
BSTAR          = .56673877E-4
MEAN_MOTION_DOT = .61E-6
MEAN_MOTION_DDOT = 0

CCSDS_OMM_VERS = 2.0
CREATION_DATE  = 
ORIGINATOR     = 

OBJECT_NAME    = SL-16 R/B
OBJECT_ID      = 1992-076B
CENTER_NAME    = EARTH
REF_FRAME      = TEME
TIME_SYSTEM    = UTC
MEAN_ELEMENT_THEORY = SGP/SGP4

EPOCH          = 2026-03-12T13:57:07.676640
MEAN_MOTION    = 14.16859226
ECCENTRICITY   = .00104823
INCLINATION    = 71.0009
RA_OF_ASC_NODE = 182.2830
ARG_OF_PERICENTER = 91.0926
MEAN_ANOMALY   = 279.9516

EPHEMERIS_TYPE = 0
CLASSIFICATION_TYPE = U
NORAD_CAT_ID   = 22220
ELEMENT_SET_NO = 999
REV_AT_EPOCH   = 72224
BSTAR          = -.36720536E-4
MEAN_MOTION_DOT = -.122E-5
MEAN_MOTION_DDOT = 0

CCSDS_OMM_VERS = 2.0
CREATION_DATE  = 
ORIGINATOR     = 

OBJECT_NAME    = COSMOS 2221
OBJECT_ID      = 1992-080A
CENTER_NAME    = EARTH
REF_FRAME      = TEME
TIME_SYSTEM    = UTC
MEAN_ELEMENT_THEORY = SGP/SGP4

EPOCH          = 2026-03-12T13:55:10.271136
MEAN_MOTION    = 14.96213688
ECCENTRICITY   = .0014286
INCLINATION    = 82.5011
RA_OF_ASC_NODE = 276.3119
ARG_OF_PERICENTER = 177.2860
MEAN_ANOMALY   = 182.8442

EPHEMERIS_TYPE = 0
CLASSIFICATION_TYPE = U
NORAD_CAT_ID   = 22236
ELEMENT_SET_NO = 999
REV_AT_EPOCH   = 78122
BSTAR          = .21540425E-3
MEAN_MOTION_DOT = .2458E-4
MEAN_MOTION_DDOT = 0

CCSDS_OMM_VERS = 2.0
CREATION_DATE  = 
ORIGINATOR     = 

OBJECT_NAME    = SL-16 R/B
OBJECT_ID      = 1992-093B
CENTER_NAME    = EARTH
REF_FRAME      = TEME
TIME_SYSTEM    = UTC
MEAN_ELEMENT_THEORY = SGP/SGP4

EPOCH          = 2026-03-12T05:06:39.354336
MEAN_MOTION    = 14.15447267
ECCENTRICITY   = .00063829
INCLINATION    = 71.0242
RA_OF_ASC_NODE = 358.9692
ARG_OF_PERICENTER = 291.0584
MEAN_ANOMALY   = 68.9856

EPHEMERIS_TYPE = 0
CLASSIFICATION_TYPE = U
NORAD_CAT_ID   = 22285
ELEMENT_SET_NO = 999
REV_AT_EPOCH   = 71351
BSTAR          = -.5104601E-4
MEAN_MOTION_DOT = -.147E-5
MEAN_MOTION_DDOT = 0

CCSDS_OMM_VERS = 2.0
CREATION_DATE  = 
ORIGINATOR     = 

OBJECT_NAME    = COSMOS 2228
OBJECT_ID      = 1992-094A
CENTER_NAME    = EARTH
REF_FRAME      = TEME
TIME_SYSTEM    = UTC
MEAN_ELEMENT_THEORY = SGP/SGP4

EPOCH          = 2026-03-12T14:15:58.158432
MEAN_MOTION    = 14.97207462
ECCENTRICITY   = .00166878
INCLINATION    = 82.5159
RA_OF_ASC_NODE = 234.5287
ARG_OF_PERICENTER = 294.1592
MEAN_ANOMALY   = 65.7885

EPHEMERIS_TYPE = 0
CLASSIFICATION_TYPE = U
NORAD_CAT_ID   = 22286
ELEMENT_SET_NO = 999
REV_AT_EPOCH   = 77649
BSTAR          = .28109497E-3
MEAN_MOTION_DOT = .3285E-4
MEAN_MOTION_DDOT = 0

CCSDS_OMM_VERS = 2.0
CREATION_DATE  = 
ORIGINATOR     = 

OBJECT_NAME    = SL-16 R/B
OBJECT_ID      = 1993-016B
CENTER_NAME    = EARTH
REF_FRAME      = TEME
TIME_SYSTEM    = UTC
MEAN_ELEMENT_THEORY = SGP/SGP4

EPOCH          = 2026-03-12T12:52:19.151328
MEAN_MOTION    = 14.15309343
ECCENTRICITY   = .00120326
INCLINATION    = 71.0079
RA_OF_ASC_NODE = 209.2020
ARG_OF_PERICENTER = 310.3014
MEAN_ANOMALY   = 49.7056

EPHEMERIS_TYPE = 0
CLASSIFICATION_TYPE = U
NORAD_CAT_ID   = 22566
ELEMENT_SET_NO = 999
REV_AT_EPOCH   = 70257
BSTAR          = .17427712E-4
MEAN_MOTION_DOT = -.14E-6
MEAN_MOTION_DDOT = 0

CCSDS_OMM_VERS = 2.0
CREATION_DATE  = 
ORIGINATOR     = 

OBJECT_NAME    = COSMOS 2242
OBJECT_ID      = 1993-024A
CENTER_NAME    = EARTH
REF_FRAME      = TEME
TIME_SYSTEM    = UTC
MEAN_ELEMENT_THEORY = SGP/SGP4

EPOCH          = 2026-03-12T13:52:05.264544
MEAN_MOTION    = 14.96561983
ECCENTRICITY   = .00150334
INCLINATION    = 82.5155
RA_OF_ASC_NODE = 263.9533
ARG_OF_PERICENTER = 298.3589
MEAN_ANOMALY   = 61.6117

EPHEMERIS_TYPE = 0
CLASSIFICATION_TYPE = U
NORAD_CAT_ID   = 22626
ELEMENT_SET_NO = 999
REV_AT_EPOCH   = 78082
BSTAR          = .17745933E-3
MEAN_MOTION_DOT = .2048E-4
MEAN_MOTION_DDOT = 0

CCSDS_OMM_VERS = 2.0
CREATION_DATE  = 
ORIGINATOR     = 

OBJECT_NAME    = SL-16 R/B
OBJECT_ID      = 1993-059B
CENTER_NAME    = EARTH
REF_FRAME      = TEME
TIME_SYSTEM    = UTC
MEAN_ELEMENT_THEORY = SGP/SGP4

EPOCH          = 2026-03-12T12:17:07.942272
MEAN_MOTION    = 14.17231383
ECCENTRICITY   = .00183651
INCLINATION    = 70.9929
RA_OF_ASC_NODE = 5.1749
ARG_OF_PERICENTER = 212.4075
MEAN_ANOMALY   = 147.5922

EPHEMERIS_TYPE = 0
CLASSIFICATION_TYPE = U
NORAD_CAT_ID   = 22803
ELEMENT_SET_NO = 999
REV_AT_EPOCH   = 67993
BSTAR          = -.3343236E-5
MEAN_MOTION_DOT = -.55E-6
MEAN_MOTION_DDOT = 0

CCSDS_OMM_VERS = 2.0
CREATION_DATE  = 
ORIGINATOR     = 

OBJECT_NAME    = ARIANE 40 R/B
OBJECT_ID      = 1993-061H
CENTER_NAME    = EARTH
REF_FRAME      = TEME
TIME_SYSTEM    = UTC
MEAN_ELEMENT_THEORY = SGP/SGP4

EPOCH          = 2026-03-12T15:09:17.544384
MEAN_MOTION    = 14.32862833
ECCENTRICITY   = .00095719
INCLINATION    = 98.4910
RA_OF_ASC_NODE = 140.4609
ARG_OF_PERICENTER = 275.3376
MEAN_ANOMALY   = 84.6716

EPHEMERIS_TYPE = 0
CLASSIFICATION_TYPE = U
NORAD_CAT_ID   = 22830
ELEMENT_SET_NO = 999
REV_AT_EPOCH   = 69452
BSTAR          = .10647506E-3
MEAN_MOTION_DOT = .247E-5
MEAN_MOTION_DDOT = 0

CCSDS_OMM_VERS = 2.0
CREATION_DATE  = 
ORIGINATOR     = 

OBJECT_NAME    = COSMOS 2278
OBJECT_ID      = 1994-023A
CENTER_NAME    = EARTH
REF_FRAME      = TEME
TIME_SYSTEM    = UTC
MEAN_ELEMENT_THEORY = SGP/SGP4

EPOCH          = 2026-03-12T13:38:03.992928
MEAN_MOTION    = 14.14379481
ECCENTRICITY   = .00082806
INCLINATION    = 71.0552
RA_OF_ASC_NODE = 169.0763
ARG_OF_PERICENTER = 7.7490
MEAN_ANOMALY   = 352.3759

EPHEMERIS_TYPE = 0
CLASSIFICATION_TYPE = U
NORAD_CAT_ID   = 23087
ELEMENT_SET_NO = 999
REV_AT_EPOCH   = 64521
BSTAR          = .209846E-4
MEAN_MOTION_DOT = -.7E-7
MEAN_MOTION_DDOT = 0

CCSDS_OMM_VERS = 2.0
CREATION_DATE  = 
ORIGINATOR     = 

OBJECT_NAME    = SL-16 R/B
OBJECT_ID      = 1994-023B
CENTER_NAME    = EARTH
REF_FRAME      = TEME
TIME_SYSTEM    = UTC
MEAN_ELEMENT_THEORY = SGP/SGP4

EPOCH          = 2026-03-12T09:37:43.559040
MEAN_MOTION    = 14.15010922
ECCENTRICITY   = .00056887
INCLINATION    = 70.9985
RA_OF_ASC_NODE = 65.1919
ARG_OF_PERICENTER = 282.9842
MEAN_ANOMALY   = 77.0645

EPHEMERIS_TYPE = 0
CLASSIFICATION_TYPE = U
NORAD_CAT_ID   = 23088
ELEMENT_SET_NO = 999
REV_AT_EPOCH   = 64647
BSTAR          = -.85655526E-4
MEAN_MOTION_DOT = -.214E-5
MEAN_MOTION_DDOT = 0

CCSDS_OMM_VERS = 2.0
CREATION_DATE  = 
ORIGINATOR     = 

OBJECT_NAME    = SL-16 R/B
OBJECT_ID      = 1994-074B
CENTER_NAME    = EARTH
REF_FRAME      = TEME
TIME_SYSTEM    = UTC
MEAN_ELEMENT_THEORY = SGP/SGP4

EPOCH          = 2026-03-12T13:51:25.942176
MEAN_MOTION    = 14.79411913
ECCENTRICITY   = .00060247
INCLINATION    = 97.7107
RA_OF_ASC_NODE = 102.2782
ARG_OF_PERICENTER = 199.9018
MEAN_ANOMALY   = 279.2585

EPHEMERIS_TYPE = 0
CLASSIFICATION_TYPE = U
NORAD_CAT_ID   = 23343
ELEMENT_SET_NO = 999
REV_AT_EPOCH   = 68767
BSTAR          = .87167612E-4
MEAN_MOTION_DOT = .601E-5
MEAN_MOTION_DDOT = 0

